0 SL-12 R/B(AUX MOTOR)
1 19856U 89001H   13281.26894468  .00000009  00000-0 -97431-3 0  9312
2 19856 065.3526 218.2095 5519907 252.8963 333.4707 04.25159404383405
0 SL-12 R/B(AUX MOTOR)
1 19856U 89001H   13283.29339618  .00000002  00000-0 -10083-2 0  9329
2 19856 065.3521 217.5268 5519967 252.7839 192.0551 04.25159194383481
0 SL-12 R/B(AUX MOTOR)
1 19856U 89001H   13286.20769101 -.00000018  00000-0 -10643-2 0  9338
2 19856 065.3512 216.5438 5520052 252.6218 332.6129 04.25158943383615
0 SL-12 R/B(AUX MOTOR)
1 19856U 89001H   13289.26690150 -.00000024  00000-0 -10105-2 0  9345
2 19856 065.3506 215.5118 5520101 252.4518 334.9734 04.25158565383749
0 SL-12 R/B(AUX MOTOR)
1 19856U 89001H   13292.30895865 -.00000017  00000-0 -10057-2 0  9353
2 19856 065.3499 214.4856 5520155 252.2825 311.0753 04.25158211383874
0 SL-12 R/B(AUX MOTOR)
1 19856U 89001H   13294.38776509 -.00000014  00000-0 -10307-2 0  9362
2 19856 065.3492 213.7846 5520208 252.1668 252.8459 04.25158032383967
